{
  "type": "FeatureCollection",
  "name": "musina_blocks_app_ready_v2",
  "crs": {
    "type": "name",
    "properties": {
      "name": "urn:ogc:def:crs:OGC:1.3:CRS84"
    }
  },
  "features": [
    {
      "type": "Feature",
      "properties": {
        "block_anchor": "Ward1-Trade-01",
        "fieldwork_ward": 1,
        "display_ward": 1,
        "cluster_type_code": "Trade",
        "cluster_typology": "Trade",
        "respondent_n": 58,
        "respondent_count_band": "40\u201359",
        "micro_cluster_n": 11,
        "privacy_class": "broad_block_summaries_allowed",
        "composition_display_rule": "broad_block_summaries_allowed",
        "sensitive_indicator_rule": "do_not_show_sensitive_cross_tabs_at_block_level",
        "latitude": -22.345194444444445,
        "longitude": 30.043194444444445,
        "gis_joined_ward": 1,
        "ward_match_status": "matched",
        "geometry_note": "Point falls inside the same official ward as its fieldwork ward assignment.",
        "birth_sa_n_safe": 7.0,
        "birth_sa_pct_safe": 12.1,
        "birth_zimbabwe_n_safe": 47.0,
        "birth_zimbabwe_pct_safe": 81.0,
        "birth_other_country_n_safe": null,
        "birth_other_country_pct_safe": null,
        "recent_origin_sa_n_safe": 12.0,
        "recent_origin_sa_pct_safe": 20.7,
        "recent_origin_zimbabwe_n_safe": 43.0,
        "recent_origin_zimbabwe_pct_safe": 74.1,
        "recent_origin_other_country_n_safe": null,
        "recent_origin_other_country_pct_safe": null,
        "permanent_valid_n_safe": 56.0,
        "permanent_yes_n_safe": 22.0,
        "permanent_yes_pct_valid_safe": 39.3,
        "non_permanent_n_safe": 34.0,
        "non_permanent_pct_valid_safe": 60.7,
        "duration_recent_move_median_months_safe": 7.0,
        "cross_border_at_least_yearly_n_safe": 38.0,
        "cross_border_at_least_yearly_pct_valid_safe": 67.9,
        "cross_border_at_least_monthly_n_safe": 12.0,
        "cross_border_at_least_monthly_pct_valid_safe": 21.4,
        "months_stay_median_nonpermanent_safe": 10.5,
        "moved_within_city_any_pct_nonpermanent_valid_safe": 50.0,
        "moved_outside_city_any_pct_nonpermanent_valid_safe": 47.1,
        "display_summary_note": "Broad non-sensitive block summaries allowed. Sensitive indicators still require caution."
      },
      "geometry": {
        "type": "Point",
        "coordinates": [
          30.043194444444445,
          -22.345194444444445
        ]
      }
    },
    {
      "type": "Feature",
      "properties": {
        "block_anchor": "Ward1-Trade-02",
        "fieldwork_ward": 1,
        "display_ward": 1,
        "cluster_type_code": "Trade",
        "cluster_typology": "Trade",
        "respondent_n": 40,
        "respondent_count_band": "40\u201359",
        "micro_cluster_n": 8,
        "privacy_class": "broad_block_summaries_allowed",
        "composition_display_rule": "broad_block_summaries_allowed",
        "sensitive_indicator_rule": "do_not_show_sensitive_cross_tabs_at_block_level",
        "latitude": -22.347916666666663,
        "longitude": 30.042472222222223,
        "gis_joined_ward": 1,
        "ward_match_status": "matched",
        "geometry_note": "Point falls inside the same official ward as its fieldwork ward assignment.",
        "birth_sa_n_safe": null,
        "birth_sa_pct_safe": null,
        "birth_zimbabwe_n_safe": 33.0,
        "birth_zimbabwe_pct_safe": 82.5,
        "birth_other_country_n_safe": null,
        "birth_other_country_pct_safe": null,
        "recent_origin_sa_n_safe": 8.0,
        "recent_origin_sa_pct_safe": 20.0,
        "recent_origin_zimbabwe_n_safe": 30.0,
        "recent_origin_zimbabwe_pct_safe": 75.0,
        "recent_origin_other_country_n_safe": null,
        "recent_origin_other_country_pct_safe": null,
        "permanent_valid_n_safe": 40.0,
        "permanent_yes_n_safe": 24.0,
        "permanent_yes_pct_valid_safe": 60.0,
        "non_permanent_n_safe": 16.0,
        "non_permanent_pct_valid_safe": 40.0,
        "duration_recent_move_median_months_safe": 6.5,
        "cross_border_at_least_yearly_n_safe": 26.0,
        "cross_border_at_least_yearly_pct_valid_safe": 65.0,
        "cross_border_at_least_monthly_n_safe": 6.0,
        "cross_border_at_least_monthly_pct_valid_safe": 15.0,
        "months_stay_median_nonpermanent_safe": 11.0,
        "moved_within_city_any_pct_nonpermanent_valid_safe": 50.0,
        "moved_outside_city_any_pct_nonpermanent_valid_safe": 31.2,
        "display_summary_note": "Broad non-sensitive block summaries allowed. Sensitive indicators still require caution."
      },
      "geometry": {
        "type": "Point",
        "coordinates": [
          30.042472222222223,
          -22.347916666666666
        ]
      }
    },
    {
      "type": "Feature",
      "properties": {
        "block_anchor": "Ward1-Trade-03",
        "fieldwork_ward": 1,
        "display_ward": 1,
        "cluster_type_code": "Trade",
        "cluster_typology": "Trade",
        "respondent_n": 5,
        "respondent_count_band": "5\u20139",
        "micro_cluster_n": 3,
        "privacy_class": "location_and_count_band_only",
        "composition_display_rule": "suppressed_n_under_10",
        "sensitive_indicator_rule": "ward_level_only",
        "latitude": -22.344055555555556,
        "longitude": 30.042583333333337,
        "gis_joined_ward": 1,
        "ward_match_status": "matched",
        "geometry_note": "Point falls inside the same official ward as its fieldwork ward assignment.",
        "birth_sa_n_safe": null,
        "birth_sa_pct_safe": null,
        "birth_zimbabwe_n_safe": null,
        "birth_zimbabwe_pct_safe": null,
        "birth_other_country_n_safe": null,
        "birth_other_country_pct_safe": null,
        "recent_origin_sa_n_safe": null,
        "recent_origin_sa_pct_safe": null,
        "recent_origin_zimbabwe_n_safe": null,
        "recent_origin_zimbabwe_pct_safe": null,
        "recent_origin_other_country_n_safe": null,
        "recent_origin_other_country_pct_safe": null,
        "permanent_valid_n_safe": null,
        "permanent_yes_n_safe": null,
        "permanent_yes_pct_valid_safe": null,
        "non_permanent_n_safe": null,
        "non_permanent_pct_valid_safe": null,
        "duration_recent_move_median_months_safe": null,
        "cross_border_at_least_yearly_n_safe": null,
        "cross_border_at_least_yearly_pct_valid_safe": null,
        "cross_border_at_least_monthly_n_safe": null,
        "cross_border_at_least_monthly_pct_valid_safe": null,
        "months_stay_median_nonpermanent_safe": null,
        "moved_within_city_any_pct_nonpermanent_valid_safe": null,
        "moved_outside_city_any_pct_nonpermanent_valid_safe": null,
        "display_summary_note": "Composition suppressed because block has fewer than 10 analyzable respondents."
      },
      "geometry": {
        "type": "Point",
        "coordinates": [
          30.042583333333337,
          -22.344055555555553
        ]
      }
    },
    {
      "type": "Feature",
      "properties": {
        "block_anchor": "Ward1-Res-01",
        "fieldwork_ward": 1,
        "display_ward": 1,
        "cluster_type_code": "Res",
        "cluster_typology": "Suburban residential",
        "respondent_n": 3,
        "respondent_count_band": "1\u20134",
        "micro_cluster_n": 1,
        "privacy_class": "suppress_composition",
        "composition_display_rule": "suppressed_n_under_10",
        "sensitive_indicator_rule": "ward_level_only",
        "latitude": -22.351750000000003,
        "longitude": 30.04302777777778,
        "gis_joined_ward": 1,
        "ward_match_status": "matched",
        "geometry_note": "Point falls inside the same official ward as its fieldwork ward assignment.",
        "birth_sa_n_safe": null,
        "birth_sa_pct_safe": null,
        "birth_zimbabwe_n_safe": null,
        "birth_zimbabwe_pct_safe": null,
        "birth_other_country_n_safe": null,
        "birth_other_country_pct_safe": null,
        "recent_origin_sa_n_safe": null,
        "recent_origin_sa_pct_safe": null,
        "recent_origin_zimbabwe_n_safe": null,
        "recent_origin_zimbabwe_pct_safe": null,
        "recent_origin_other_country_n_safe": null,
        "recent_origin_other_country_pct_safe": null,
        "permanent_valid_n_safe": null,
        "permanent_yes_n_safe": null,
        "permanent_yes_pct_valid_safe": null,
        "non_permanent_n_safe": null,
        "non_permanent_pct_valid_safe": null,
        "duration_recent_move_median_months_safe": null,
        "cross_border_at_least_yearly_n_safe": null,
        "cross_border_at_least_yearly_pct_valid_safe": null,
        "cross_border_at_least_monthly_n_safe": null,
        "cross_border_at_least_monthly_pct_valid_safe": null,
        "months_stay_median_nonpermanent_safe": null,
        "moved_within_city_any_pct_nonpermanent_valid_safe": null,
        "moved_outside_city_any_pct_nonpermanent_valid_safe": null,
        "display_summary_note": "Composition suppressed because block has fewer than 10 analyzable respondents."
      },
      "geometry": {
        "type": "Point",
        "coordinates": [
          30.04302777777778,
          -22.35175
        ]
      }
    },
    {
      "type": "Feature",
      "properties": {
        "block_anchor": "Ward2-Farm-01",
        "fieldwork_ward": 2,
        "display_ward": 2,
        "cluster_type_code": "Farm",
        "cluster_typology": "Farm",
        "respondent_n": 52,
        "respondent_count_band": "40\u201359",
        "micro_cluster_n": 1,
        "privacy_class": "broad_block_summaries_allowed",
        "composition_display_rule": "broad_block_summaries_allowed",
        "sensitive_indicator_rule": "do_not_show_sensitive_cross_tabs_at_block_level",
        "latitude": -22.192222222222224,
        "longitude": 29.87088888888889,
        "gis_joined_ward": 2,
        "ward_match_status": "matched",
        "geometry_note": "Point falls inside the same official ward as its fieldwork ward assignment.",
        "birth_sa_n_safe": 12.0,
        "birth_sa_pct_safe": 23.1,
        "birth_zimbabwe_n_safe": 40.0,
        "birth_zimbabwe_pct_safe": 76.9,
        "birth_other_country_n_safe": null,
        "birth_other_country_pct_safe": null,
        "recent_origin_sa_n_safe": 12.0,
        "recent_origin_sa_pct_safe": 23.1,
        "recent_origin_zimbabwe_n_safe": 40.0,
        "recent_origin_zimbabwe_pct_safe": 76.9,
        "recent_origin_other_country_n_safe": null,
        "recent_origin_other_country_pct_safe": null,
        "permanent_valid_n_safe": 52.0,
        "permanent_yes_n_safe": 18.0,
        "permanent_yes_pct_valid_safe": 34.6,
        "non_permanent_n_safe": 34.0,
        "non_permanent_pct_valid_safe": 65.4,
        "duration_recent_move_median_months_safe": 2.0,
        "cross_border_at_least_yearly_n_safe": 40.0,
        "cross_border_at_least_yearly_pct_valid_safe": 76.9,
        "cross_border_at_least_monthly_n_safe": 15.0,
        "cross_border_at_least_monthly_pct_valid_safe": 28.8,
        "months_stay_median_nonpermanent_safe": 10.5,
        "moved_within_city_any_pct_nonpermanent_valid_safe": 50.0,
        "moved_outside_city_any_pct_nonpermanent_valid_safe": 52.9,
        "display_summary_note": "Broad non-sensitive block summaries allowed. Sensitive indicators still require caution."
      },
      "geometry": {
        "type": "Point",
        "coordinates": [
          29.87088888888889,
          -22.192222222222224
        ]
      }
    },
    {
      "type": "Feature",
      "properties": {
        "block_anchor": "Ward2-Farm-02",
        "fieldwork_ward": 2,
        "display_ward": 2,
        "cluster_type_code": "Farm",
        "cluster_typology": "Farm",
        "respondent_n": 55,
        "respondent_count_band": "40\u201359",
        "micro_cluster_n": 1,
        "privacy_class": "broad_block_summaries_allowed",
        "composition_display_rule": "broad_block_summaries_allowed",
        "sensitive_indicator_rule": "do_not_show_sensitive_cross_tabs_at_block_level",
        "latitude": -22.203166666666664,
        "longitude": 29.87475,
        "gis_joined_ward": 2,
        "ward_match_status": "matched",
        "geometry_note": "Point falls inside the same official ward as its fieldwork ward assignment.",
        "birth_sa_n_safe": 5.0,
        "birth_sa_pct_safe": 9.1,
        "birth_zimbabwe_n_safe": 50.0,
        "birth_zimbabwe_pct_safe": 90.9,
        "birth_other_country_n_safe": null,
        "birth_other_country_pct_safe": null,
        "recent_origin_sa_n_safe": null,
        "recent_origin_sa_pct_safe": null,
        "recent_origin_zimbabwe_n_safe": 51.0,
        "recent_origin_zimbabwe_pct_safe": 92.7,
        "recent_origin_other_country_n_safe": null,
        "recent_origin_other_country_pct_safe": null,
        "permanent_valid_n_safe": 55.0,
        "permanent_yes_n_safe": 20.0,
        "permanent_yes_pct_valid_safe": 36.4,
        "non_permanent_n_safe": 35.0,
        "non_permanent_pct_valid_safe": 63.6,
        "duration_recent_move_median_months_safe": 5.0,
        "cross_border_at_least_yearly_n_safe": 47.0,
        "cross_border_at_least_yearly_pct_valid_safe": 85.5,
        "cross_border_at_least_monthly_n_safe": 9.0,
        "cross_border_at_least_monthly_pct_valid_safe": 16.4,
        "months_stay_median_nonpermanent_safe": 10.0,
        "moved_within_city_any_pct_nonpermanent_valid_safe": 42.9,
        "moved_outside_city_any_pct_nonpermanent_valid_safe": 42.9,
        "display_summary_note": "Broad non-sensitive block summaries allowed. Sensitive indicators still require caution."
      },
      "geometry": {
        "type": "Point",
        "coordinates": [
          29.87475,
          -22.203166666666664
        ]
      }
    },
    {
      "type": "Feature",
      "properties": {
        "block_anchor": "Ward3-TS-01",
        "fieldwork_ward": 3,
        "display_ward": 3,
        "cluster_type_code": "TS",
        "cluster_typology": "Township",
        "respondent_n": 50,
        "respondent_count_band": "40\u201359",
        "micro_cluster_n": 15,
        "privacy_class": "broad_block_summaries_allowed",
        "composition_display_rule": "broad_block_summaries_allowed",
        "sensitive_indicator_rule": "do_not_show_sensitive_cross_tabs_at_block_level",
        "latitude": -22.33183333333333,
        "longitude": 30.033944444444447,
        "gis_joined_ward": 4,
        "ward_match_status": "mismatch_retained_by_sampling_design",
        "geometry_note": "Point falls outside the fieldwork-assigned ward in the official GIS boundary file; retained under confirmed sampling-design assignment.",
        "birth_sa_n_safe": 11.0,
        "birth_sa_pct_safe": 22.0,
        "birth_zimbabwe_n_safe": 31.0,
        "birth_zimbabwe_pct_safe": 62.0,
        "birth_other_country_n_safe": 8.0,
        "birth_other_country_pct_safe": 16.0,
        "recent_origin_sa_n_safe": 19.0,
        "recent_origin_sa_pct_safe": 38.0,
        "recent_origin_zimbabwe_n_safe": 27.0,
        "recent_origin_zimbabwe_pct_safe": 54.0,
        "recent_origin_other_country_n_safe": null,
        "recent_origin_other_country_pct_safe": null,
        "permanent_valid_n_safe": 50.0,
        "permanent_yes_n_safe": 32.0,
        "permanent_yes_pct_valid_safe": 64.0,
        "non_permanent_n_safe": 18.0,
        "non_permanent_pct_valid_safe": 36.0,
        "duration_recent_move_median_months_safe": 12.0,
        "cross_border_at_least_yearly_n_safe": 25.0,
        "cross_border_at_least_yearly_pct_valid_safe": 50.0,
        "cross_border_at_least_monthly_n_safe": 5.0,
        "cross_border_at_least_monthly_pct_valid_safe": 10.0,
        "months_stay_median_nonpermanent_safe": 12.0,
        "moved_within_city_any_pct_nonpermanent_valid_safe": 33.3,
        "moved_outside_city_any_pct_nonpermanent_valid_safe": 38.9,
        "display_summary_note": "Broad non-sensitive block summaries allowed. Sensitive indicators still require caution."
      },
      "geometry": {
        "type": "Point",
        "coordinates": [
          30.033944444444447,
          -22.331833333333332
        ]
      }
    },
    {
      "type": "Feature",
      "properties": {
        "block_anchor": "Ward3-TS-02",
        "fieldwork_ward": 3,
        "display_ward": 3,
        "cluster_type_code": "TS",
        "cluster_typology": "Township",
        "respondent_n": 50,
        "respondent_count_band": "40\u201359",
        "micro_cluster_n": 17,
        "privacy_class": "broad_block_summaries_allowed",
        "composition_display_rule": "broad_block_summaries_allowed",
        "sensitive_indicator_rule": "do_not_show_sensitive_cross_tabs_at_block_level",
        "latitude": -22.333194444444445,
        "longitude": 30.029722222222222,
        "gis_joined_ward": 4,
        "ward_match_status": "mismatch_retained_by_sampling_design",
        "geometry_note": "Point falls outside the fieldwork-assigned ward in the official GIS boundary file; retained under confirmed sampling-design assignment.",
        "birth_sa_n_safe": 12.0,
        "birth_sa_pct_safe": 24.0,
        "birth_zimbabwe_n_safe": 35.0,
        "birth_zimbabwe_pct_safe": 70.0,
        "birth_other_country_n_safe": null,
        "birth_other_country_pct_safe": null,
        "recent_origin_sa_n_safe": 18.0,
        "recent_origin_sa_pct_safe": 36.0,
        "recent_origin_zimbabwe_n_safe": 31.0,
        "recent_origin_zimbabwe_pct_safe": 62.0,
        "recent_origin_other_country_n_safe": null,
        "recent_origin_other_country_pct_safe": null,
        "permanent_valid_n_safe": 50.0,
        "permanent_yes_n_safe": 24.0,
        "permanent_yes_pct_valid_safe": 48.0,
        "non_permanent_n_safe": 26.0,
        "non_permanent_pct_valid_safe": 52.0,
        "duration_recent_move_median_months_safe": 12.0,
        "cross_border_at_least_yearly_n_safe": 24.0,
        "cross_border_at_least_yearly_pct_valid_safe": 48.0,
        "cross_border_at_least_monthly_n_safe": null,
        "cross_border_at_least_monthly_pct_valid_safe": null,
        "months_stay_median_nonpermanent_safe": 11.0,
        "moved_within_city_any_pct_nonpermanent_valid_safe": 73.1,
        "moved_outside_city_any_pct_nonpermanent_valid_safe": 26.9,
        "display_summary_note": "Broad non-sensitive block summaries allowed. Sensitive indicators still require caution."
      },
      "geometry": {
        "type": "Point",
        "coordinates": [
          30.029722222222222,
          -22.333194444444445
        ]
      }
    },
    {
      "type": "Feature",
      "properties": {
        "block_anchor": "Ward4-Trade-01",
        "fieldwork_ward": 4,
        "display_ward": 4,
        "cluster_type_code": "Trade",
        "cluster_typology": "Trade",
        "respondent_n": 57,
        "respondent_count_band": "40\u201359",
        "micro_cluster_n": 7,
        "privacy_class": "broad_block_summaries_allowed",
        "composition_display_rule": "broad_block_summaries_allowed",
        "sensitive_indicator_rule": "do_not_show_sensitive_cross_tabs_at_block_level",
        "latitude": -22.3395,
        "longitude": 30.041666666666668,
        "gis_joined_ward": 4,
        "ward_match_status": "matched",
        "geometry_note": "Point falls inside the same official ward as its fieldwork ward assignment.",
        "birth_sa_n_safe": 5.0,
        "birth_sa_pct_safe": 8.8,
        "birth_zimbabwe_n_safe": 48.0,
        "birth_zimbabwe_pct_safe": 84.2,
        "birth_other_country_n_safe": null,
        "birth_other_country_pct_safe": null,
        "recent_origin_sa_n_safe": 5.0,
        "recent_origin_sa_pct_safe": 8.8,
        "recent_origin_zimbabwe_n_safe": 48.0,
        "recent_origin_zimbabwe_pct_safe": 84.2,
        "recent_origin_other_country_n_safe": null,
        "recent_origin_other_country_pct_safe": null,
        "permanent_valid_n_safe": 56.0,
        "permanent_yes_n_safe": 22.0,
        "permanent_yes_pct_valid_safe": 39.3,
        "non_permanent_n_safe": 34.0,
        "non_permanent_pct_valid_safe": 60.7,
        "duration_recent_move_median_months_safe": 8.0,
        "cross_border_at_least_yearly_n_safe": 38.0,
        "cross_border_at_least_yearly_pct_valid_safe": 67.9,
        "cross_border_at_least_monthly_n_safe": 10.0,
        "cross_border_at_least_monthly_pct_valid_safe": 17.9,
        "months_stay_median_nonpermanent_safe": 11.0,
        "moved_within_city_any_pct_nonpermanent_valid_safe": 38.2,
        "moved_outside_city_any_pct_nonpermanent_valid_safe": 17.6,
        "display_summary_note": "Broad non-sensitive block summaries allowed. Sensitive indicators still require caution."
      },
      "geometry": {
        "type": "Point",
        "coordinates": [
          30.041666666666668,
          -22.3395
        ]
      }
    },
    {
      "type": "Feature",
      "properties": {
        "block_anchor": "Ward4-Trade-02",
        "fieldwork_ward": 4,
        "display_ward": 4,
        "cluster_type_code": "Trade",
        "cluster_typology": "Trade",
        "respondent_n": 56,
        "respondent_count_band": "40\u201359",
        "micro_cluster_n": 7,
        "privacy_class": "broad_block_summaries_allowed",
        "composition_display_rule": "broad_block_summaries_allowed",
        "sensitive_indicator_rule": "do_not_show_sensitive_cross_tabs_at_block_level",
        "latitude": -22.34336111111111,
        "longitude": 30.044722222222223,
        "gis_joined_ward": 4,
        "ward_match_status": "matched",
        "geometry_note": "Point falls inside the same official ward as its fieldwork ward assignment.",
        "birth_sa_n_safe": 9.0,
        "birth_sa_pct_safe": 16.1,
        "birth_zimbabwe_n_safe": 36.0,
        "birth_zimbabwe_pct_safe": 64.3,
        "birth_other_country_n_safe": 11.0,
        "birth_other_country_pct_safe": 19.6,
        "recent_origin_sa_n_safe": 15.0,
        "recent_origin_sa_pct_safe": 26.8,
        "recent_origin_zimbabwe_n_safe": 34.0,
        "recent_origin_zimbabwe_pct_safe": 60.7,
        "recent_origin_other_country_n_safe": 7.0,
        "recent_origin_other_country_pct_safe": 12.5,
        "permanent_valid_n_safe": 56.0,
        "permanent_yes_n_safe": 29.0,
        "permanent_yes_pct_valid_safe": 51.8,
        "non_permanent_n_safe": 27.0,
        "non_permanent_pct_valid_safe": 48.2,
        "duration_recent_move_median_months_safe": 12.0,
        "cross_border_at_least_yearly_n_safe": 32.0,
        "cross_border_at_least_yearly_pct_valid_safe": 57.1,
        "cross_border_at_least_monthly_n_safe": 9.0,
        "cross_border_at_least_monthly_pct_valid_safe": 16.1,
        "months_stay_median_nonpermanent_safe": 11.0,
        "moved_within_city_any_pct_nonpermanent_valid_safe": 48.1,
        "moved_outside_city_any_pct_nonpermanent_valid_safe": 29.6,
        "display_summary_note": "Broad non-sensitive block summaries allowed. Sensitive indicators still require caution."
      },
      "geometry": {
        "type": "Point",
        "coordinates": [
          30.044722222222223,
          -22.34336111111111
        ]
      }
    },
    {
      "type": "Feature",
      "properties": {
        "block_anchor": "Ward5-TS-02",
        "fieldwork_ward": 5,
        "display_ward": 5,
        "cluster_type_code": "TS",
        "cluster_typology": "Township",
        "respondent_n": 51,
        "respondent_count_band": "40\u201359",
        "micro_cluster_n": 10,
        "privacy_class": "broad_block_summaries_allowed",
        "composition_display_rule": "broad_block_summaries_allowed",
        "sensitive_indicator_rule": "do_not_show_sensitive_cross_tabs_at_block_level",
        "latitude": -22.339694444444444,
        "longitude": 30.01952777777778,
        "gis_joined_ward": 5,
        "ward_match_status": "matched",
        "geometry_note": "Point falls inside the same official ward as its fieldwork ward assignment.",
        "birth_sa_n_safe": 6.0,
        "birth_sa_pct_safe": 11.8,
        "birth_zimbabwe_n_safe": 38.0,
        "birth_zimbabwe_pct_safe": 74.5,
        "birth_other_country_n_safe": 7.0,
        "birth_other_country_pct_safe": 13.7,
        "recent_origin_sa_n_safe": 11.0,
        "recent_origin_sa_pct_safe": 21.6,
        "recent_origin_zimbabwe_n_safe": 36.0,
        "recent_origin_zimbabwe_pct_safe": 70.6,
        "recent_origin_other_country_n_safe": null,
        "recent_origin_other_country_pct_safe": null,
        "permanent_valid_n_safe": 51.0,
        "permanent_yes_n_safe": 26.0,
        "permanent_yes_pct_valid_safe": 51.0,
        "non_permanent_n_safe": 25.0,
        "non_permanent_pct_valid_safe": 49.0,
        "duration_recent_move_median_months_safe": 6.0,
        "cross_border_at_least_yearly_n_safe": 27.0,
        "cross_border_at_least_yearly_pct_valid_safe": 52.9,
        "cross_border_at_least_monthly_n_safe": 10.0,
        "cross_border_at_least_monthly_pct_valid_safe": 19.6,
        "months_stay_median_nonpermanent_safe": 11.0,
        "moved_within_city_any_pct_nonpermanent_valid_safe": 52.0,
        "moved_outside_city_any_pct_nonpermanent_valid_safe": 32.0,
        "display_summary_note": "Broad non-sensitive block summaries allowed. Sensitive indicators still require caution."
      },
      "geometry": {
        "type": "Point",
        "coordinates": [
          30.01952777777778,
          -22.339694444444444
        ]
      }
    },
    {
      "type": "Feature",
      "properties": {
        "block_anchor": "Ward5-TS-01",
        "fieldwork_ward": 5,
        "display_ward": 5,
        "cluster_type_code": "TS",
        "cluster_typology": "Township",
        "respondent_n": 39,
        "respondent_count_band": "20\u201339",
        "micro_cluster_n": 8,
        "privacy_class": "broad_block_summaries_allowed",
        "composition_display_rule": "broad_block_summaries_allowed",
        "sensitive_indicator_rule": "do_not_show_sensitive_cross_tabs_at_block_level",
        "latitude": -22.343055555555555,
        "longitude": 30.017916666666665,
        "gis_joined_ward": 5,
        "ward_match_status": "matched",
        "geometry_note": "Point falls inside the same official ward as its fieldwork ward assignment.",
        "birth_sa_n_safe": 13.0,
        "birth_sa_pct_safe": 33.3,
        "birth_zimbabwe_n_safe": 24.0,
        "birth_zimbabwe_pct_safe": 61.5,
        "birth_other_country_n_safe": null,
        "birth_other_country_pct_safe": null,
        "recent_origin_sa_n_safe": 15.0,
        "recent_origin_sa_pct_safe": 38.5,
        "recent_origin_zimbabwe_n_safe": 23.0,
        "recent_origin_zimbabwe_pct_safe": 59.0,
        "recent_origin_other_country_n_safe": null,
        "recent_origin_other_country_pct_safe": null,
        "permanent_valid_n_safe": 39.0,
        "permanent_yes_n_safe": 23.0,
        "permanent_yes_pct_valid_safe": 59.0,
        "non_permanent_n_safe": 16.0,
        "non_permanent_pct_valid_safe": 41.0,
        "duration_recent_move_median_months_safe": 7.0,
        "cross_border_at_least_yearly_n_safe": 16.0,
        "cross_border_at_least_yearly_pct_valid_safe": 41.0,
        "cross_border_at_least_monthly_n_safe": null,
        "cross_border_at_least_monthly_pct_valid_safe": null,
        "months_stay_median_nonpermanent_safe": 11.0,
        "moved_within_city_any_pct_nonpermanent_valid_safe": 50.0,
        "moved_outside_city_any_pct_nonpermanent_valid_safe": null,
        "display_summary_note": "Broad non-sensitive block summaries allowed. Sensitive indicators still require caution."
      },
      "geometry": {
        "type": "Point",
        "coordinates": [
          30.017916666666665,
          -22.343055555555555
        ]
      }
    },
    {
      "type": "Feature",
      "properties": {
        "block_anchor": "Ward5-TS-03",
        "fieldwork_ward": 5,
        "display_ward": 5,
        "cluster_type_code": "TS",
        "cluster_typology": "Township",
        "respondent_n": 11,
        "respondent_count_band": "10\u201319",
        "micro_cluster_n": 5,
        "privacy_class": "broad_non_sensitive_summaries_with_caution",
        "composition_display_rule": "broad_non_sensitive_only_n_10_to_19",
        "sensitive_indicator_rule": "ward_level_only",
        "latitude": -22.341638888888887,
        "longitude": 30.01383333333333,
        "gis_joined_ward": 5,
        "ward_match_status": "matched",
        "geometry_note": "Point falls inside the same official ward as its fieldwork ward assignment.",
        "birth_sa_n_safe": null,
        "birth_sa_pct_safe": null,
        "birth_zimbabwe_n_safe": 11.0,
        "birth_zimbabwe_pct_safe": 100.0,
        "birth_other_country_n_safe": null,
        "birth_other_country_pct_safe": null,
        "recent_origin_sa_n_safe": null,
        "recent_origin_sa_pct_safe": null,
        "recent_origin_zimbabwe_n_safe": 11.0,
        "recent_origin_zimbabwe_pct_safe": 100.0,
        "recent_origin_other_country_n_safe": null,
        "recent_origin_other_country_pct_safe": null,
        "permanent_valid_n_safe": 11.0,
        "permanent_yes_n_safe": null,
        "permanent_yes_pct_valid_safe": null,
        "non_permanent_n_safe": 7.0,
        "non_permanent_pct_valid_safe": 63.6,
        "duration_recent_move_median_months_safe": 6.0,
        "cross_border_at_least_yearly_n_safe": 7.0,
        "cross_border_at_least_yearly_pct_valid_safe": 63.6,
        "cross_border_at_least_monthly_n_safe": null,
        "cross_border_at_least_monthly_pct_valid_safe": null,
        "months_stay_median_nonpermanent_safe": 9.0,
        "moved_within_city_any_pct_nonpermanent_valid_safe": null,
        "moved_outside_city_any_pct_nonpermanent_valid_safe": null,
        "display_summary_note": "Broad non-sensitive block summaries only; avoid sensitive cross-tabs."
      },
      "geometry": {
        "type": "Point",
        "coordinates": [
          30.013833333333334,
          -22.341638888888887
        ]
      }
    },
    {
      "type": "Feature",
      "properties": {
        "block_anchor": "Ward6-TS-01",
        "fieldwork_ward": 6,
        "display_ward": 6,
        "cluster_type_code": "TS",
        "cluster_typology": "Township",
        "respondent_n": 36,
        "respondent_count_band": "20\u201339",
        "micro_cluster_n": 13,
        "privacy_class": "broad_block_summaries_allowed",
        "composition_display_rule": "broad_block_summaries_allowed",
        "sensitive_indicator_rule": "do_not_show_sensitive_cross_tabs_at_block_level",
        "latitude": -22.34797222222222,
        "longitude": 30.006027777777778,
        "gis_joined_ward": 6,
        "ward_match_status": "matched",
        "geometry_note": "Point falls inside the same official ward as its fieldwork ward assignment.",
        "birth_sa_n_safe": 9.0,
        "birth_sa_pct_safe": 25.0,
        "birth_zimbabwe_n_safe": 24.0,
        "birth_zimbabwe_pct_safe": 66.7,
        "birth_other_country_n_safe": null,
        "birth_other_country_pct_safe": null,
        "recent_origin_sa_n_safe": 10.0,
        "recent_origin_sa_pct_safe": 27.8,
        "recent_origin_zimbabwe_n_safe": 24.0,
        "recent_origin_zimbabwe_pct_safe": 66.7,
        "recent_origin_other_country_n_safe": null,
        "recent_origin_other_country_pct_safe": null,
        "permanent_valid_n_safe": 36.0,
        "permanent_yes_n_safe": 28.0,
        "permanent_yes_pct_valid_safe": 77.8,
        "non_permanent_n_safe": 8.0,
        "non_permanent_pct_valid_safe": 22.2,
        "duration_recent_move_median_months_safe": 7.5,
        "cross_border_at_least_yearly_n_safe": 18.0,
        "cross_border_at_least_yearly_pct_valid_safe": 50.0,
        "cross_border_at_least_monthly_n_safe": null,
        "cross_border_at_least_monthly_pct_valid_safe": null,
        "months_stay_median_nonpermanent_safe": 6.0,
        "moved_within_city_any_pct_nonpermanent_valid_safe": null,
        "moved_outside_city_any_pct_nonpermanent_valid_safe": null,
        "display_summary_note": "Broad non-sensitive block summaries allowed. Sensitive indicators still require caution."
      },
      "geometry": {
        "type": "Point",
        "coordinates": [
          30.006027777777778,
          -22.34797222222222
        ]
      }
    },
    {
      "type": "Feature",
      "properties": {
        "block_anchor": "Ward6-TS-02",
        "fieldwork_ward": 6,
        "display_ward": 6,
        "cluster_type_code": "TS",
        "cluster_typology": "Township",
        "respondent_n": 26,
        "respondent_count_band": "20\u201339",
        "micro_cluster_n": 6,
        "privacy_class": "broad_block_summaries_allowed",
        "composition_display_rule": "broad_block_summaries_allowed",
        "sensitive_indicator_rule": "do_not_show_sensitive_cross_tabs_at_block_level",
        "latitude": -22.3455,
        "longitude": 30.008861111111116,
        "gis_joined_ward": 6,
        "ward_match_status": "matched",
        "geometry_note": "Point falls inside the same official ward as its fieldwork ward assignment.",
        "birth_sa_n_safe": 9.0,
        "birth_sa_pct_safe": 34.6,
        "birth_zimbabwe_n_safe": 17.0,
        "birth_zimbabwe_pct_safe": 65.4,
        "birth_other_country_n_safe": null,
        "birth_other_country_pct_safe": null,
        "recent_origin_sa_n_safe": 12.0,
        "recent_origin_sa_pct_safe": 46.2,
        "recent_origin_zimbabwe_n_safe": 14.0,
        "recent_origin_zimbabwe_pct_safe": 53.8,
        "recent_origin_other_country_n_safe": null,
        "recent_origin_other_country_pct_safe": null,
        "permanent_valid_n_safe": 26.0,
        "permanent_yes_n_safe": 10.0,
        "permanent_yes_pct_valid_safe": 38.5,
        "non_permanent_n_safe": 16.0,
        "non_permanent_pct_valid_safe": 61.5,
        "duration_recent_move_median_months_safe": 8.5,
        "cross_border_at_least_yearly_n_safe": 8.0,
        "cross_border_at_least_yearly_pct_valid_safe": 30.8,
        "cross_border_at_least_monthly_n_safe": null,
        "cross_border_at_least_monthly_pct_valid_safe": null,
        "months_stay_median_nonpermanent_safe": 9.5,
        "moved_within_city_any_pct_nonpermanent_valid_safe": 75.0,
        "moved_outside_city_any_pct_nonpermanent_valid_safe": 37.5,
        "display_summary_note": "Broad non-sensitive block summaries allowed. Sensitive indicators still require caution."
      },
      "geometry": {
        "type": "Point",
        "coordinates": [
          30.008861111111113,
          -22.3455
        ]
      }
    },
    {
      "type": "Feature",
      "properties": {
        "block_anchor": "Ward6-TS-03",
        "fieldwork_ward": 6,
        "display_ward": 6,
        "cluster_type_code": "TS",
        "cluster_typology": "Township",
        "respondent_n": 40,
        "respondent_count_band": "40\u201359",
        "micro_cluster_n": 17,
        "privacy_class": "broad_block_summaries_allowed",
        "composition_display_rule": "broad_block_summaries_allowed",
        "sensitive_indicator_rule": "do_not_show_sensitive_cross_tabs_at_block_level",
        "latitude": -22.345027777777776,
        "longitude": 30.01558333333333,
        "gis_joined_ward": 6,
        "ward_match_status": "matched",
        "geometry_note": "Point falls inside the same official ward as its fieldwork ward assignment.",
        "birth_sa_n_safe": 5.0,
        "birth_sa_pct_safe": 12.5,
        "birth_zimbabwe_n_safe": 35.0,
        "birth_zimbabwe_pct_safe": 87.5,
        "birth_other_country_n_safe": null,
        "birth_other_country_pct_safe": null,
        "recent_origin_sa_n_safe": 7.0,
        "recent_origin_sa_pct_safe": 17.5,
        "recent_origin_zimbabwe_n_safe": 33.0,
        "recent_origin_zimbabwe_pct_safe": 82.5,
        "recent_origin_other_country_n_safe": null,
        "recent_origin_other_country_pct_safe": null,
        "permanent_valid_n_safe": 40.0,
        "permanent_yes_n_safe": 18.0,
        "permanent_yes_pct_valid_safe": 45.0,
        "non_permanent_n_safe": 22.0,
        "non_permanent_pct_valid_safe": 55.0,
        "duration_recent_move_median_months_safe": 7.0,
        "cross_border_at_least_yearly_n_safe": 23.0,
        "cross_border_at_least_yearly_pct_valid_safe": 57.5,
        "cross_border_at_least_monthly_n_safe": 7.0,
        "cross_border_at_least_monthly_pct_valid_safe": 17.5,
        "months_stay_median_nonpermanent_safe": 11.0,
        "moved_within_city_any_pct_nonpermanent_valid_safe": 54.5,
        "moved_outside_city_any_pct_nonpermanent_valid_safe": 31.8,
        "display_summary_note": "Broad non-sensitive block summaries allowed. Sensitive indicators still require caution."
      },
      "geometry": {
        "type": "Point",
        "coordinates": [
          30.015583333333332,
          -22.345027777777776
        ]
      }
    }
  ]
}